{
  "type": "FeatureCollection",
  "features": [
    {
      "type": "Feature",
      "properties": {
        "norad_id": 28899,
        "name": "INMARSAT 4-F2 (SOUTHPAN/PRN 122)",
        "group": "gnss",
        "lat": -4.44737725010883,
        "lon": -22.677994938205096,
        "alt_km": 35783.236039115465,
        "timestamp": "2025-12-09T07:41:33.447915+00:00",
        "meta_object_name": "INMARSAT 4-F2 (SOUTHPAN/PRN 122)",
        "meta_object_id": "2005-044A",
        "meta_epoch": "2025-12-08T22:50:48.374592",
        "meta_mean_motion": 1.00272355,
        "meta_eccentricity": 0.00031986,
        "meta_inclination": 4.8474,
        "meta_ra_of_asc_node": 43.6797,
        "meta_arg_of_pericenter": 217.6913,
        "meta_mean_anomaly": 302.7876,
        "meta_ephemeris_type": 0,
        "meta_classification_type": "U",
        "meta_norad_cat_id": 28899,
        "meta_element_set_no": 999,
        "meta_rev_at_epoch": 7361,
        "meta_bstar": 0,
        "meta_mean_motion_dot": -2.6e-06,
        "meta_mean_motion_ddot": 0,
        "tle_line1": "1 28899U 05044A   25342.95194878 -.00000260  00000+0  00000+0 0  9993",
        "tle_line2": "2 28899   4.8474  43.6797 0003198 217.6913 302.7876  1.00272355 73616"
      },
      "geometry": {
        "type": "Point",
        "coordinates": [
          -22.677994938205096,
          -4.44737725010883
        ]
      }
    },
    {
      "type": "Feature",
      "properties": {
        "norad_id": 29486,
        "name": "GPS BIIRM-2 (PRN 31)",
        "group": "gnss",
        "lat": -21.055704772115504,
        "lon": -5.2920512754309055,
        "alt_km": 20442.008521633037,
        "timestamp": "2025-12-09T07:41:33.447928+00:00",
        "meta_object_name": "GPS BIIRM-2 (PRN 31)",
        "meta_object_id": "2006-042A",
        "meta_epoch": "2025-12-08T13:17:33.123840",
        "meta_mean_motion": 2.00554246,
        "meta_eccentricity": 0.0107364,
        "meta_inclination": 54.6936,
        "meta_ra_of_asc_node": 158.9068,
        "meta_arg_of_pericenter": 51.8598,
        "meta_mean_anomaly": 320.1374,
        "meta_ephemeris_type": 0,
        "meta_classification_type": "U",
        "meta_norad_cat_id": 29486,
        "meta_element_set_no": 999,
        "meta_rev_at_epoch": 14057,
        "meta_bstar": 0,
        "meta_mean_motion_dot": 6e-07,
        "meta_mean_motion_ddot": 0,
        "tle_line1": "1 29486U 06042A   25342.55385560  .00000060  00000+0  00000+0 0  9998",
        "tle_line2": "2 29486  54.6936 158.9068 0107364  51.8598 320.1374  2.00554246140573"
      },
      "geometry": {
        "type": "Point",
        "coordinates": [
          -5.2920512754309055,
          -21.055704772115504
        ]
      }
    },
    {
      "type": "Feature",
      "properties": {
        "norad_id": 29601,
        "name": "GPS BIIRM-3 (PRN 12)",
        "group": "gnss",
        "lat": -54.367025880101934,
        "lon": 119.46838212063858,
        "alt_km": 20419.200454245543,
        "timestamp": "2025-12-09T07:41:33.447941+00:00",
        "meta_object_name": "GPS BIIRM-3 (PRN 12)",
        "meta_object_id": "2006-052A",
        "meta_epoch": "2025-12-07T23:03:27.943776",
        "meta_mean_motion": 2.00573143,
        "meta_eccentricity": 0.00876753,
        "meta_inclination": 54.9714,
        "meta_ra_of_asc_node": 221.588,
        "meta_arg_of_pericenter": 87.3904,
        "meta_mean_anomaly": 273.6993,
        "meta_ephemeris_type": 0,
        "meta_classification_type": "U",
        "meta_norad_cat_id": 29601,
        "meta_element_set_no": 999,
        "meta_rev_at_epoch": 13957,
        "meta_bstar": 0,
        "meta_mean_motion_dot": 2.2e-07,
        "meta_mean_motion_ddot": 0,
        "tle_line1": "1 29601U 06052A   25341.96074009  .00000022  00000+0  00000+0 0  9993",
        "tle_line2": "2 29601  54.9714 221.5880 0087675  87.3904 273.6993  2.00573143139579"
      },
      "geometry": {
        "type": "Point",
        "coordinates": [
          119.46838212063858,
          -54.367025880101934
        ]
      }
    },
    {
      "type": "Feature",
      "properties": {
        "norad_id": 32260,
        "name": "GPS BIIRM-4 (PRN 15)",
        "group": "gnss",
        "lat": 32.603968305790026,
        "lon": 115.62361376059965,
        "alt_km": 19858.04170257694,
        "timestamp": "2025-12-09T07:41:33.447954+00:00",
        "meta_object_name": "GPS BIIRM-4 (PRN 15)",
        "meta_object_id": "2007-047A",
        "meta_epoch": "2025-12-07T18:25:34.370688",
        "meta_mean_motion": 2.00564615,
        "meta_eccentricity": 0.01643014,
        "meta_inclination": 53.9519,
        "meta_ra_of_asc_node": 87.9639,
        "meta_arg_of_pericenter": 85.1876,
        "meta_mean_anomaly": 276.6737,
        "meta_ephemeris_type": 0,
        "meta_classification_type": "U",
        "meta_norad_cat_id": 32260,
        "meta_element_set_no": 999,
        "meta_rev_at_epoch": 13297,
        "meta_bstar": 0,
        "meta_mean_motion_dot": -1.8e-07,
        "meta_mean_motion_ddot": 0,
        "tle_line1": "1 32260U 07047A   25341.76775892 -.00000018  00000+0  00000+0 0  9995",
        "tle_line2": "2 32260  53.9519  87.9639 0164301  85.1876 276.6737  2.00564615132978"
      },
      "geometry": {
        "type": "Point",
        "coordinates": [
          115.62361376059965,
          32.603968305790026
        ]
      }
    },
    {
      "type": "Feature",
      "properties": {
        "norad_id": 32275,
        "name": "COSMOS 2433 (720)",
        "group": "gnss",
        "lat": -10.326002486759556,
        "lon": -42.41482704109869,
        "alt_km": 19132.803356446286,
        "timestamp": "2025-12-09T07:41:33.447966+00:00",
        "meta_object_name": "COSMOS 2433 (720)",
        "meta_object_id": "2007-052A",
        "meta_epoch": "2025-12-07T22:15:39.436992",
        "meta_mean_motion": 2.13103936,
        "meta_eccentricity": 0.00054366,
        "meta_inclination": 65.6859,
        "meta_ra_of_asc_node": 322.3673,
        "meta_arg_of_pericenter": 253.7081,
        "meta_mean_anomaly": 106.2283,
        "meta_ephemeris_type": 0,
        "meta_classification_type": "U",
        "meta_norad_cat_id": 32275,
        "meta_element_set_no": 999,
        "meta_rev_at_epoch": 14098,
        "meta_bstar": 0,
        "meta_mean_motion_dot": -4.9e-07,
        "meta_mean_motion_ddot": 0,
        "tle_line1": "1 32275U 07052A   25341.92753978 -.00000049  00000+0  00000+0 0  9990",
        "tle_line2": "2 32275  65.6859 322.3673 0005436 253.7081 106.2283  2.13103936140982"
      },
      "geometry": {
        "type": "Point",
        "coordinates": [
          -42.41482704109869,
          -10.326002486759556
        ]
      }
    },
    {
      "type": "Feature",
      "properties": {
        "norad_id": 32276,
        "name": "COSMOS 2432 (719)",
        "group": "gnss",
        "lat": -56.99433340675673,
        "lon": -81.62644765182448,
        "alt_km": 19108.826864336294,
        "timestamp": "2025-12-09T07:41:33.447979+00:00",
        "meta_object_name": "COSMOS 2432 (719)",
        "meta_object_id": "2007-052B",
        "meta_epoch": "2025-12-08T02:14:19.806720",
        "meta_mean_motion": 2.13103088,
        "meta_eccentricity": 0.00112877,
        "meta_inclination": 65.7017,
        "meta_ra_of_asc_node": 322.4859,
        "meta_arg_of_pericenter": 312.3782,
        "meta_mean_anomaly": 119.1922,
        "meta_ephemeris_type": 0,
        "meta_classification_type": "U",
        "meta_norad_cat_id": 32276,
        "meta_element_set_no": 999,
        "meta_rev_at_epoch": 14101,
        "meta_bstar": 0,
        "meta_mean_motion_dot": -4.9e-07,
        "meta_mean_motion_ddot": 0,
        "tle_line1": "1 32276U 07052B   25342.09328480 -.00000049  00000+0  00000+0 0  9996",
        "tle_line2": "2 32276  65.7017 322.4859 0011287 312.3782 119.1922  2.13103088141014"
      },
      "geometry": {
        "type": "Point",
        "coordinates": [
          -81.62644765182448,
          -56.99433340675673
        ]
      }
    },
    {
      "type": "Feature",
      "properties": {
        "norad_id": 32384,
        "name": "GPS BIIRM-5 (PRN 29)",
        "group": "gnss",
        "lat": 6.373994576806534,
        "lon": 97.3153539940097,
        "alt_km": 20096.00169884532,
        "timestamp": "2025-12-09T07:41:33.447991+00:00",
        "meta_object_name": "GPS BIIRM-5 (PRN 29)",
        "meta_object_id": "2007-062A",
        "meta_epoch": "2025-12-08T07:46:47.506944",
        "meta_mean_motion": 2.00576984,
        "meta_eccentricity": 0.00322211,
        "meta_inclination": 55.1861,
        "meta_ra_of_asc_node": 281.823,
        "meta_arg_of_pericenter": 162.5952,
        "meta_mean_anomaly": 10.0568,
        "meta_ephemeris_type": 0,
        "meta_classification_type": "U",
        "meta_norad_cat_id": 32384,
        "meta_element_set_no": 999,
        "meta_rev_at_epoch": 13168,
        "meta_bstar": 0,
        "meta_mean_motion_dot": -4.5e-07,
        "meta_mean_motion_ddot": 0,
        "tle_line1": "1 32384U 07062A   25342.32416096 -.00000045  00000+0  00000+0 0  9990",
        "tle_line2": "2 32384  55.1861 281.8230 0032221 162.5952  10.0568  2.00576984131682"
      },
      "geometry": {
        "type": "Point",
        "coordinates": [
          97.3153539940097,
          6.373994576806534
        ]
      }
    }
  ]
}